{
  "type": "FeatureCollection",
  "features": [
    {
      "type": "Feature",
      "properties": {
        "norad_id": 36453,
        "name": "COSMOS 2251 DEB",
        "group": "cosmos-2251-debris",
        "lat": -20.128469035265,
        "lon": 117.5485294058384,
        "alt_km": 685.1262178120751,
        "timestamp": "2025-12-27T21:25:02.914277+00:00",
        "meta_object_name": "COSMOS 2251 DEB",
        "meta_object_id": "1993-036BBC",
        "meta_epoch": "2025-12-27T02:28:26.944896",
        "meta_mean_motion": 14.52707209,
        "meta_eccentricity": 0.00707607,
        "meta_inclination": 73.9237,
        "meta_ra_of_asc_node": 125.114,
        "meta_arg_of_pericenter": 24.4373,
        "meta_mean_anomaly": 149.0425,
        "meta_ephemeris_type": 0,
        "meta_classification_type": "U",
        "meta_norad_cat_id": 36453,
        "meta_element_set_no": 999,
        "meta_rev_at_epoch": 84676,
        "meta_bstar": 0.0010340192,
        "meta_mean_motion_dot": 4.355e-05,
        "meta_mean_motion_ddot": 0,
        "tle_line1": "1 36453U 93036BBC 25361.10308964  .00004355  00000+0  10340-2 0  9996",
        "tle_line2": "2 36453  73.9237 125.1140 0070760  24.4373 149.0425 14.52707209846764"
      },
      "geometry": {
        "type": "Point",
        "coordinates": [
          117.5485294058384,
          -20.128469035265
        ]
      }
    },
    {
      "type": "Feature",
      "properties": {
        "norad_id": 36459,
        "name": "COSMOS 2251 DEB",
        "group": "cosmos-2251-debris",
        "lat": -74.01383812447891,
        "lon": -120.72262582619864,
        "alt_km": 884.1259589146375,
        "timestamp": "2025-12-27T21:25:02.914288+00:00",
        "meta_object_name": "COSMOS 2251 DEB",
        "meta_object_id": "1993-036BBJ",
        "meta_epoch": "2025-12-20T06:23:01.272480",
        "meta_mean_motion": 14.26454896,
        "meta_eccentricity": 0.0113312,
        "meta_inclination": 74.0464,
        "meta_ra_of_asc_node": 346.1968,
        "meta_arg_of_pericenter": 79.9168,
        "meta_mean_anomaly": 281.4741,
        "meta_ephemeris_type": 0,
        "meta_classification_type": "U",
        "meta_norad_cat_id": 36459,
        "meta_element_set_no": 999,
        "meta_rev_at_epoch": 7989,
        "meta_bstar": 0.00092616994,
        "meta_mean_motion_dot": 2.362e-05,
        "meta_mean_motion_ddot": 0,
        "tle_line1": "1 36459U 93036BBJ 25354.26598695  .00002362  00000+0  92617-3 0  9997",
        "tle_line2": "2 36459  74.0464 346.1968 0113312  79.9168 281.4741 14.26454896 79891"
      },
      "geometry": {
        "type": "Point",
        "coordinates": [
          -120.72262582619864,
          -74.01383812447891
        ]
      }
    },
    {
      "type": "Feature",
      "properties": {
        "norad_id": 36470,
        "name": "COSMOS 2251 DEB",
        "group": "cosmos-2251-debris",
        "lat": 69.72771104654599,
        "lon": -85.42431077390192,
        "alt_km": 519.0011329570225,
        "timestamp": "2025-12-27T21:25:02.914298+00:00",
        "meta_object_name": "COSMOS 2251 DEB",
        "meta_object_id": "1993-036BBV",
        "meta_epoch": "2025-12-26T21:12:15.465312",
        "meta_mean_motion": 15.08626133,
        "meta_eccentricity": 0.0022915,
        "meta_inclination": 73.8425,
        "meta_ra_of_asc_node": 224.9633,
        "meta_arg_of_pericenter": 51.4821,
        "meta_mean_anomaly": 308.8419,
        "meta_ephemeris_type": 0,
        "meta_classification_type": "U",
        "meta_norad_cat_id": 36470,
        "meta_element_set_no": 999,
        "meta_rev_at_epoch": 66307,
        "meta_bstar": 0.0034896,
        "meta_mean_motion_dot": 0.0005534,
        "meta_mean_motion_ddot": 0,
        "tle_line1": "1 36470U 93036BBV 25360.88351233  .00055340  00000+0  34896-2 0  9998",
        "tle_line2": "2 36470  73.8425 224.9633 0022915  51.4821 308.8419 15.08626133663070"
      },
      "geometry": {
        "type": "Point",
        "coordinates": [
          -85.42431077390192,
          69.72771104654599
        ]
      }
    },
    {
      "type": "Feature",
      "properties": {
        "norad_id": 36528,
        "name": "COSMOS 2251 DEB",
        "group": "cosmos-2251-debris",
        "lat": -68.05090939384525,
        "lon": -17.064767772603318,
        "alt_km": 796.5123045655228,
        "timestamp": "2025-12-27T21:25:02.914309+00:00",
        "meta_object_name": "COSMOS 2251 DEB",
        "meta_object_id": "1993-036BCN",
        "meta_epoch": "2025-12-27T01:46:36.057216",
        "meta_mean_motion": 14.30726703,
        "meta_eccentricity": 0.0083786,
        "meta_inclination": 74.0183,
        "meta_ra_of_asc_node": 119.0983,
        "meta_arg_of_pericenter": 165.6268,
        "meta_mean_anomaly": 194.7295,
        "meta_ephemeris_type": 0,
        "meta_classification_type": "U",
        "meta_norad_cat_id": 36528,
        "meta_element_set_no": 999,
        "meta_rev_at_epoch": 64632,
        "meta_bstar": 0.0013259325,
        "meta_mean_motion_dot": 3.581e-05,
        "meta_mean_motion_ddot": 0,
        "tle_line1": "1 36528U 93036BCN 25361.07402844  .00003581  00000+0  13259-2 0  9999",
        "tle_line2": "2 36528  74.0183 119.0983 0083786 165.6268 194.7295 14.30726703646327"
      },
      "geometry": {
        "type": "Point",
        "coordinates": [
          -17.064767772603318,
          -68.05090939384525
        ]
      }
    },
    {
      "type": "Feature",
      "properties": {
        "norad_id": 36533,
        "name": "COSMOS 2251 DEB",
        "group": "cosmos-2251-debris",
        "lat": 15.331035362096952,
        "lon": 90.84778499434962,
        "alt_km": 754.4995257061946,
        "timestamp": "2025-12-27T21:25:02.914319+00:00",
        "meta_object_name": "COSMOS 2251 DEB",
        "meta_object_id": "1993-036BCT",
        "meta_epoch": "2025-12-24T23:47:29.202144",
        "meta_mean_motion": 14.49859831,
        "meta_eccentricity": 0.00492005,
        "meta_inclination": 74.0122,
        "meta_ra_of_asc_node": 91.7921,
        "meta_arg_of_pericenter": 238.8301,
        "meta_mean_anomaly": 120.8031,
        "meta_ephemeris_type": 0,
        "meta_classification_type": "U",
        "meta_norad_cat_id": 36533,
        "meta_element_set_no": 999,
        "meta_rev_at_epoch": 84662,
        "meta_bstar": 0.00052465602,
        "meta_mean_motion_dot": 2.029e-05,
        "meta_mean_motion_ddot": 0,
        "tle_line1": "1 36533U 93036BCT 25358.99131021  .00002029  00000+0  52466-3 0  9998",
        "tle_line2": "2 36533  74.0122  91.7921 0049200 238.8301 120.8031 14.49859831846620"
      },
      "geometry": {
        "type": "Point",
        "coordinates": [
          90.84778499434962,
          15.331035362096952
        ]
      }
    },
    {
      "type": "Feature",
      "properties": {
        "norad_id": 36539,
        "name": "COSMOS 2251 DEB",
        "group": "cosmos-2251-debris",
        "lat": 14.147680567408866,
        "lon": 30.413363394924207,
        "alt_km": 712.3182914813415,
        "timestamp": "2025-12-27T21:25:02.914329+00:00",
        "meta_object_name": "COSMOS 2251 DEB",
        "meta_object_id": "1993-036BCZ",
        "meta_epoch": "2025-12-27T11:28:43.173408",
        "meta_mean_motion": 14.59389806,
        "meta_eccentricity": 0.0026174,
        "meta_inclination": 74.0237,
        "meta_ra_of_asc_node": 27.0619,
        "meta_arg_of_pericenter": 169.2051,
        "meta_mean_anomaly": 190.9682,
        "meta_ephemeris_type": 0,
        "meta_classification_type": "U",
        "meta_norad_cat_id": 36539,
        "meta_element_set_no": 999,
        "meta_rev_at_epoch": 84162,
        "meta_bstar": 0.0006915,
        "meta_mean_motion_dot": 3.262e-05,
        "meta_mean_motion_ddot": 0,
        "tle_line1": "1 36539U 93036BCZ 25361.47827747  .00003262  00000+0  69150-3 0  9996",
        "tle_line2": "2 36539  74.0237  27.0619 0026174 169.2051 190.9682 14.59389806841629"
      },
      "geometry": {
        "type": "Point",
        "coordinates": [
          30.413363394924207,
          14.147680567408866
        ]
      }
    },
    {
      "type": "Feature",
      "properties": {
        "norad_id": 36540,
        "name": "COSMOS 2251 DEB",
        "group": "cosmos-2251-debris",
        "lat": -61.63662006555103,
        "lon": 119.6182449448804,
        "alt_km": 701.2437610722127,
        "timestamp": "2025-12-27T21:25:02.914340+00:00",
        "meta_object_name": "COSMOS 2251 DEB",
        "meta_object_id": "1993-036BDA",
        "meta_epoch": "2025-12-27T03:36:51.804576",
        "meta_mean_motion": 14.58631431,
        "meta_eccentricity": 0.00145062,
        "meta_inclination": 74.0284,
        "meta_ra_of_asc_node": 153.0694,
        "meta_arg_of_pericenter": 223.0902,
        "meta_mean_anomaly": 136.9128,
        "meta_ephemeris_type": 0,
        "meta_classification_type": "U",
        "meta_norad_cat_id": 36540,
        "meta_element_set_no": 999,
        "meta_rev_at_epoch": 86220,
        "meta_bstar": 0.0016070142,
        "meta_mean_motion_dot": 7.475e-05,
        "meta_mean_motion_ddot": 0,
        "tle_line1": "1 36540U 93036BDA 25361.15059959  .00007475  00000+0  16070-2 0  9997",
        "tle_line2": "2 36540  74.0284 153.0694 0014506 223.0902 136.9128 14.58631431862201"
      },
      "geometry": {
        "type": "Point",
        "coordinates": [
          119.6182449448804,
          -61.63662006555103
        ]
      }
    }
  ]
}